[{"OBJECT_NAME":"HORS 2","OBJECT_ID":"2023-091AG","EPOCH":"2026-03-09T22:11:34.810944","MEAN_MOTION":15.2928008,"ECCENTRICITY":0.00098173,"INCLINATION":97.5195,"RA_OF_ASC_NODE":134.7443,"ARG_OF_PERICENTER":79.3164,"MEAN_ANOMALY":280.9181,"EPHEMERIS_TYPE":0,"CLASSIFICATION_TYPE":"U","NORAD_CAT_ID":57196,"ELEMENT_SET_NO":999,"REV_AT_EPOCH":14934,"BSTAR":0.00059338338,"MEAN_MOTION_DOT":0.00016821,"MEAN_MOTION_DDOT":0},{"OBJECT_NAME":"STARLINK-35627","OBJECT_ID":"2025-240AC","EPOCH":"2026-03-09T23:41:37.440960","MEAN_MOTION":15.30202636,"ECCENTRICITY":0.00013823,"INCLINATION":53.1592,"RA_OF_ASC_NODE":61.4385,"ARG_OF_PERICENTER":101.735,"MEAN_ANOMALY":258.3805,"EPHEMERIS_TYPE":0,"CLASSIFICATION_TYPE":"U","NORAD_CAT_ID":66172,"ELEMENT_SET_NO":999,"REV_AT_EPOCH":2203,"BSTAR":0.00097583491,"MEAN_MOTION_DOT":0.00028656,"MEAN_MOTION_DDOT":0}]
